[Satellite]
VERSION=1.1
NAME=ODIN
NICKNAME=ODIN
TLE1=1 26702U 01007A   18020.64664207  .00000493  00000-0  36690-4 0  9995
TLE2=2 26702  97.6004  40.2138 0011639  38.4390 321.7665 15.07417367923803
